CSS (TIANHE)            
1 48274U 21035A   23261.53520330  .00042094  00000+0  46024-3 0  9998
2 48274  41.4738 308.0323 0008224  47.0030 313.1497 15.62492999136423
